{"signature":{"source":"NASA/JPL SBDB (Small-Body DataBase) Query API","version":"1.0"},"fields":["full_name","epoch","e","a","q","i","om","w","ma"],"data":[["   433 Eros (A898 PA)","2460600.5","0.2227","1.458","1.133","10.83","304.27","178.91","86.67"],["   719 Albert (A911 TB)","2460600.5","0.5468","2.636","1.195","11.58","183.86","156.22","148.45"],["   887 Alinda (A918 AA)","2460600.5","0.5711","2.473","1.060","9.40","110.42","350.47","340.20"],["  1036 Ganymed (A924 UB)","2460600.5","0.5328","2.665","1.245","26.69","215.49","132.50","6.98"],["  1221 Amor (1932 EA1)","2460600.5","0.4347","1.92","1.085","11.87","171.26","26.72","271.70"],["  1566 Icarus (1949 MA)","2460600.5","0.8270","1.078","0.187","22.80","87.95","31.43","160.86"],["  1580 Betulia (1950 KA)","2460600.5","0.4876","2.195","1.125","52.19","62.23","159.73","319.03"],["  1620 Geographos (1951 RA)","2460600.5","0.3356","1.246","0.828","13.34","337.15","277.01","289.36"],["  1627 Ivar (1929 SH)","2460600.5","0.3970","1.863","1.124","8.45","133.08","167.84","156.41"],["  1685 Toro (1948 OA)","2460600.5","0.4361","1.368","0.771","9.38","274.21","127.27","196.26"]],"count":36253}